OBJECT_NAME,OBJECT_ID,EPOCH,MEAN_MOTION,ECCENTRICITY,INCLINATION,RA_OF_ASC_NODE,ARG_OF_PERICENTER,MEAN_ANOMALY,EPHEMERIS_TYPE,CLASSIFICATION_TYPE,NORAD_CAT_ID,ELEMENT_SET_NO,REV_AT_EPOCH,BSTAR,MEAN_MOTION_DOT,MEAN_MOTION_DDOT
STARLINK-33786,2025-071X,2026-06-28T20:11:38.469408,15.30215754,.00012152,53.1617,343.8808,82.9096,277.2043,0,U,63514,999,6940,.45190805E-3,.13055E-3,0
STARLINK-33796,2025-071Y,2026-06-28T17:35:17.327616,15.30216025,.00009653,53.1603,343.9168,90.3598,269.7514,0,U,63515,999,6977,.58437028E-3,.16996E-3,0
STARLINK-33785,2025-071Z,2026-06-28T20:23:06.148608,15.31718960,.000115,53.1610,343.2252,73.4590,286.6537,0,U,63516,999,6977,.38555759E-3,.11625E-3,0
STARLINK-33803,2025-071AA,2026-06-28T20:54:01.837440,15.30209155,.00008586,53.1598,343.3534,67.7453,292.3639,0,U,63517,999,6979,.79786743E-3,.23352E-3,0
STARLINK-33807,2025-071AB,2026-06-28T20:03:47.526336,15.34412669,.00011291,53.1611,341.0074,101.4318,258.6811,0,U,63518,999,6982,.49802168E-3,.16494E-3,0
STARLINK-33787,2025-071AC,2026-06-29T09:57:35.784864,15.30238499,.000094,53.1594,343.1973,80.1581,279.9526,0,U,63519,999,6947,.95435E-3,.28046E-3,0
STARLINK-11669 [DTC],2025-075A,2026-06-28T18:29:47.061312,15.71014418,.00011059,42.9985,203.8071,10.7123,349.3768,0,U,63548,999,7072,.1211723E-2,.159208E-2,0
STARLINK-11665 [DTC],2025-075B,2026-06-28T08:27:05.524128,15.70822234,.00012557,42.9981,206.7044,282.9544,77.1183,0,U,63549,999,7065,.6663732E-3,.85879E-3,0
STARLINK-11667 [DTC],2025-075C,2026-06-28T08:57:40.657536,15.70938648,.00008643,42.9993,206.8751,209.4175,150.6644,0,U,63550,999,7065,.14604235E-2,.192133E-2,0
STARLINK-11695 [DTC],2025-075D,2026-06-29T06:43:34.475232,15.70899101,.0001766,43.0009,200.7491,257.5548,102.5122,0,U,63551,999,7080,.15515E-2,.204104E-2,0
STARLINK-11685 [DTC],2025-075E,2026-06-28T18:45:04.351104,15.70786928,.00021263,43.0031,203.8924,261.6934,98.3693,0,U,63552,999,7072,.20539703E-2,.271285E-2,0
STARLINK-11697 [DTC],2025-075F,2026-06-28T08:00:04.000032,15.70873276,.00015397,42.9997,206.6702,273.4106,40.4983,0,U,63553,999,599,-.85479738E-3,-.108861E-2,0
STARLINK-11680 [DTC],2025-075G,2026-06-28T11:53:08.649600,15.70907470,.00029369,43.0056,206.0645,279.6758,80.3778,0,U,63554,999,7067,.10907821E-2,.142353E-2,0
STARLINK-11626 [DTC],2025-075J,2026-06-29T08:00:03.000384,15.70864499,.0001381,42.9996,201.2390,268.5094,66.7343,0,U,63556,999,599,-.76382E-3,-.97417E-3,0
STARLINK-11668 [DTC],2025-075K,2026-06-28T18:14:38.551488,15.70982527,.00029865,42.9980,204.6151,285.3468,74.7069,0,U,63557,999,7071,.10687542E-2,.139871E-2,0
STARLINK-11657 [DTC],2025-075L,2026-06-28T13:17:03.870528,15.70860943,.00016112,43.0018,205.6367,291.4758,68.5938,0,U,63558,999,7068,.14818797E-2,.19438E-2,0
STARLINK-11606 [DTC],2025-075M,2026-06-28T18:37:25.159296,15.71003992,.0004257,43.0015,203.8471,272.2083,87.8297,0,U,63559,999,7072,.11648814E-2,.152901E-2,0
STARLINK-11592 [DTC],2025-075N,2026-06-28T11:22:33.343392,15.70948248,.00043753,43.0019,205.8919,269.4595,90.5771,0,U,63560,999,7067,.11371058E-2,.148825E-2,0
STARLINK-32953,2025-075P,2026-06-29T13:18:40.304160,15.27582402,.0001463,43.0030,359.0566,261.0252,99.0434,0,U,63561,999,6903,.57479E-3,.15589E-3,0
STARLINK-32951,2025-075Q,2026-06-29T13:13:06.940992,15.27599006,.0001914,43.0035,359.0020,282.7406,77.3232,0,U,63562,999,6904,.8161E-3,.22276E-3,0
STARLINK-32958,2025-075R,2026-06-29T12:58:19.251840,15.27590856,.0000735,43.0031,358.9479,349.0401,11.0435,0,U,63563,999,6903,.77802E-3,.21216E-3,0
STARLINK-32928,2025-075S,2026-06-29T12:34:15.775680,15.27574895,.0002993,43.0041,358.8275,284.1920,75.8599,0,U,63564,999,6904,.17011E-3,.4421E-4,0
STARLINK-32687,2025-075T,2026-06-29T13:11:16.113984,15.27594996,.0002013,43.0032,358.9913,282.1588,77.9038,0,U,63565,999,6904,.78066E-3,.21292E-3,0
STARLINK-32950,2025-075U,2026-06-29T12:26:51.022176,15.27585941,.0000845,42.9990,358.7237,282.8558,77.2199,0,U,63566,999,6903,.71508E-3,.19471E-3,0
STARLINK-32954,2025-075V,2026-06-29T12:45:21.294144,15.27595119,.000291,43.0041,358.8516,281.4545,78.5980,0,U,63567,999,6903,.65508E-3,.17817E-3,0
STARLINK-32940,2025-075W,2026-06-29T12:52:45.314976,15.27568910,.0001513,43.0027,358.8922,274.2162,85.8517,0,U,63568,999,6903,.2586E-3,.6858E-4,0
STARLINK-32959,2025-076A,2026-06-28T23:12:37.743264,15.27584572,.00013386,43.0032,57.2411,275.0173,85.0526,0,U,63569,999,6880,.84307324E-3,.23013E-3,0
STARLINK-32956,2025-076B,2026-06-28T17:06:53.826336,15.27593429,.00007724,43.0000,57.9062,229.7179,130.3605,0,U,63570,999,6876,.61131527E-3,.16605E-3,0
STARLINK-33722,2025-076C,2026-06-28T17:27:55.770048,15.27590757,.0001483,43.0010,54.4927,268.0477,92.0205,0,U,63571,999,6880,.41470492E-3,.11171E-3,0
STARLINK-33739,2025-076D,2026-06-28T23:00:21.471840,15.27589783,.00013383,43.0026,53.6489,271.4698,88.6000,0,U,63572,999,6884,.9151827E-3,.25015E-3,0
