[
  {
    "name": "STARLINK-33786",
    "noradId": "63514",
    "line1": "1 63514U 25071X   26179.84141747  .00013055  00000+0  45191-3 0  9991",
    "line2": "2 63514  53.1617 343.8808 0001215  82.9096 277.2043 15.30215754 69408"
  },
  {
    "name": "STARLINK-33796",
    "noradId": "63515",
    "line1": "1 63515U 25071Y   26179.73283944  .00016996  00000+0  58437-3 0  9990",
    "line2": "2 63515  53.1603 343.9168 0000965  90.3598 269.7514 15.30216025 69776"
  },
  {
    "name": "STARLINK-33785",
    "noradId": "63516",
    "line1": "1 63516U 25071Z   26179.84937672  .00011625  00000+0  38556-3 0  9991",
    "line2": "2 63516  53.1610 343.2252 0001150  73.4590 286.6537 15.31718960 69772"
  },
  {
    "name": "STARLINK-33803",
    "noradId": "63517",
    "line1": "1 63517U 25071AA  26179.87085460  .00023352  00000+0  79787-3 0  9995",
    "line2": "2 63517  53.1598 343.3534 0000858  67.7453 292.3639 15.30209155 69799"
  },
  {
    "name": "STARLINK-33807",
    "noradId": "63518",
    "line1": "1 63518U 25071AB  26179.83596674  .00016494  00000+0  49802-3 0  9990",
    "line2": "2 63518  53.1611 341.0074 0001129 101.4318 258.6811 15.34412669 69829"
  },
  {
    "name": "STARLINK-33787",
    "noradId": "63519",
    "line1": "1 63519U 25071AC  26180.41499751  .00028046  00000+0  95435-3 0  9994",
    "line2": "2 63519  53.1594 343.1973 0000940  80.1581 279.9526 15.30238499 69479"
  },
  {
    "name": "STARLINK-11669 [DTC]",
    "noradId": "63548",
    "line1": "1 63548U 25075A   26179.77068358  .00159208  00000+0  12117-2 0  9992",
    "line2": "2 63548  42.9985 203.8071 0001105  10.7123 349.3768 15.71014418 70725"
  },
  {
    "name": "STARLINK-11665 [DTC]",
    "noradId": "63549",
    "line1": "1 63549U 25075B   26179.35214727  .00085879  00000+0  66637-3 0  9999",
    "line2": "2 63549  42.9981 206.7044 0001255 282.9544  77.1183 15.70822234 70651"
  },
  {
    "name": "STARLINK-11667 [DTC]",
    "noradId": "63550",
    "line1": "1 63550U 25075C   26179.37338724  .00192133  00000+0  14604-2 0  9995",
    "line2": "2 63550  42.9993 206.8751 0000864 209.4175 150.6644 15.70938648 70657"
  },
  {
    "name": "STARLINK-11695 [DTC]",
    "noradId": "63551",
    "line1": "1 63551U 25075D   26180.28026013  .00204104  00000+0  15515-2 0  9997",
    "line2": "2 63551  43.0009 200.7491 0001766 257.5548 102.5122 15.70899101 70806"
  },
  {
    "name": "STARLINK-11685 [DTC]",
    "noradId": "63552",
    "line1": "1 63552U 25075E   26179.78130036  .00271285  00000+0  20540-2 0  9990",
    "line2": "2 63552  43.0031 203.8924 0002126 261.6934  98.3693 15.70786928 70721"
  },
  {
    "name": "STARLINK-11697 [DTC]",
    "noradId": "63553",
    "line1": "1 63553U 25075F   26179.33337963 -.00108861  00000+0 -85480-3 0  9996",
    "line2": "2 63553  42.9997 206.6702 0001539 273.4106  40.4983 15.70873276  5995"
  },
  {
    "name": "STARLINK-11680 [DTC]",
    "noradId": "63554",
    "line1": "1 63554U 25075G   26179.49523900  .00142353  00000+0  10908-2 0  9996",
    "line2": "2 63554  43.0056 206.0645 0002936 279.6758  80.3778 15.70907470 70673"
  },
  {
    "name": "STARLINK-11626 [DTC]",
    "noradId": "63556",
    "line1": "1 63556U 25075J   26180.33336806 -.00097417  00000+0 -76382-3 0  9991",
    "line2": "2 63556  42.9996 201.2390 0001381 268.5094  66.7343 15.70864499  5995"
  },
  {
    "name": "STARLINK-11668 [DTC]",
    "noradId": "63557",
    "line1": "1 63557U 25075K   26179.76016842  .00139871  00000+0  10688-2 0  9997",
    "line2": "2 63557  42.9980 204.6151 0002986 285.3468  74.7069 15.70982527 70714"
  },
  {
    "name": "STARLINK-11657 [DTC]",
    "noradId": "63558",
    "line1": "1 63558U 25075L   26179.55351702  .00194380  00000+0  14819-2 0  9998",
    "line2": "2 63558  43.0018 205.6367 0001611 291.4758  68.5938 15.70860943 70682"
  },
  {
    "name": "STARLINK-11606 [DTC]",
    "noradId": "63559",
    "line1": "1 63559U 25075M   26179.77598564  .00152901  00000+0  11649-2 0  9993",
    "line2": "2 63559  43.0015 203.8471 0004257 272.2083  87.8297 15.71003992 70724"
  },
  {
    "name": "STARLINK-11592 [DTC]",
    "noradId": "63560",
    "line1": "1 63560U 25075N   26179.47399703  .00148825  00000+0  11371-2 0  9998",
    "line2": "2 63560  43.0019 205.8919 0004375 269.4595  90.5771 15.70948248 70679"
  },
  {
    "name": "STARLINK-32953",
    "noradId": "63561",
    "line1": "1 63561U 25075P   26180.55463315  .00015589  00000+0  57479-3 0  9991",
    "line2": "2 63561  43.0030 359.0566 0001463 261.0252  99.0434 15.27582402 69032"
  },
  {
    "name": "STARLINK-32951",
    "noradId": "63562",
    "line1": "1 63562U 25075Q   26180.55077478  .00022276  00000+0  81610-3 0  9998",
    "line2": "2 63562  43.0035 359.0020 0001914 282.7406  77.3232 15.27599006 69049"
  },
  {
    "name": "STARLINK-32958",
    "noradId": "63563",
    "line1": "1 63563U 25075R   26180.54050060  .00021216  00000+0  77802-3 0  9997",
    "line2": "2 63563  43.0031 358.9479 0000735 349.0401  11.0435 15.27590856 69037"
  },
  {
    "name": "STARLINK-32928",
    "noradId": "63564",
    "line1": "1 63564U 25075S   26180.52379370  .00004421  00000+0  17011-3 0  9999",
    "line2": "2 63564  43.0041 358.8275 0002993 284.1920  75.8599 15.27574895 69040"
  },
  {
    "name": "STARLINK-32687",
    "noradId": "63565",
    "line1": "1 63565U 25075T   26180.54949206  .00021292  00000+0  78066-3 0  9995",
    "line2": "2 63565  43.0032 358.9913 0002013 282.1588  77.9038 15.27594996 69047"
  },
  {
    "name": "STARLINK-32950",
    "noradId": "63566",
    "line1": "1 63566U 25075U   26180.51864609  .00019471  00000+0  71508-3 0  9996",
    "line2": "2 63566  42.9990 358.7237 0000845 282.8558  77.2199 15.27585941 69031"
  },
  {
    "name": "STARLINK-32954",
    "noradId": "63567",
    "line1": "1 63567U 25075V   26180.53149646  .00017817  00000+0  65508-3 0  9991",
    "line2": "2 63567  43.0041 358.8516 0002910 281.4545  78.5980 15.27595119 69038"
  },
  {
    "name": "STARLINK-32940",
    "noradId": "63568",
    "line1": "1 63568U 25075W   26180.53663559  .00006858  00000+0  25860-3 0  9996",
    "line2": "2 63568  43.0027 358.8922 0001513 274.2162  85.8517 15.27568910 69033"
  },
  {
    "name": "STARLINK-32959",
    "noradId": "63569",
    "line1": "1 63569U 25076A   26179.96710351  .00023013  00000+0  84307-3 0  9999",
    "line2": "2 63569  43.0032  57.2411 0001338 275.0173  85.0526 15.27584572 68807"
  },
  {
    "name": "STARLINK-32956",
    "noradId": "63570",
    "line1": "1 63570U 25076B   26179.71312299  .00016605  00000+0  61132-3 0  9993",
    "line2": "2 63570  43.0000  57.9062 0000772 229.7179 130.3605 15.27593429 68764"
  },
  {
    "name": "STARLINK-33722",
    "noradId": "63571",
    "line1": "1 63571U 25076C   26179.72772882  .00011171  00000+0  41470-3 0  9999",
    "line2": "2 63571  43.0010  54.4927 0001483 268.0477  92.0205 15.27590757 68801"
  },
  {
    "name": "STARLINK-33739",
    "noradId": "63572",
    "line1": "1 63572U 25076D   26179.95858185  .00025015  00000+0  91518-3 0  9996",
    "line2": "2 63572  43.0026  53.6489 0001338 271.4698  88.6000 15.27589783 68840"
  }
]